{"type": "FeatureCollection", "features": [ {"type": "Feature", "properties": {"norad_id": 34874, "name": "COSMOS 2251 DEB", "group": "cosmos-2251-debris", "lat": 6.581778342426204, "lon": -109.79699891247343, "alt_km": 763.2988970707402, "timestamp": "2025-12-13T15:35:12.499434+00:00", "meta": {"OBJECT_NAME": "COSMOS 2251 DEB", "OBJECT_ID": "1993-036ACM", "EPOCH": "2025-12-12T05:29:30.411744", "MEAN_MOTION": 14.36307124, "ECCENTRICITY": 0.00509679, "INCLINATION": 74.0398, "RA_OF_ASC_NODE": 74.703, "ARG_OF_PERICENTER": 100.1759, "MEAN_ANOMALY": 289.5848, "EPHEMERIS_TYPE": 0, "CLASSIFICATION_TYPE": "U", "NORAD_CAT_ID": 34874, "ELEMENT_SET_NO": 999, "REV_AT_EPOCH": 87037, "BSTAR": 0.0013992098, "MEAN_MOTION_DOT": 4.128e-05, "MEAN_MOTION_DDOT": 0}, "tle": {"line1": "1 34874U 93036ACM 25346.22882421  .00004128  00000+0  13992-2 0  9996", "line2": "2 34874  74.0398  74.7030 0050967 100.1759 289.5848 14.36307124870370"}}, "geometry": {"type": "Point", "coordinates": [-109.79699891247343, 6.581778342426204]}}, {"type": "Feature", "properties": {"norad_id": 34875, "name": "COSMOS 2251 DEB", "group": "cosmos-2251-debris", "lat": -73.65410861279948, "lon": 53.807503460834894, "alt_km": 724.9558390896091, "timestamp": "2025-12-13T15:35:12.499444+00:00", "meta": {"OBJECT_NAME": "COSMOS 2251 DEB", "OBJECT_ID": "1993-036ACN", "EPOCH": "2025-12-12T18:32:42.031680", "MEAN_MOTION": 14.48925546, "ECCENTRICITY": 0.00161314, "INCLINATION": 74.0435, "RA_OF_ASC_NODE": 158.1528, "ARG_OF_PERICENTER": 281.8592, "MEAN_ANOMALY": 93.2829, "EPHEMERIS_TYPE": 0, "CLASSIFICATION_TYPE": "U", "NORAD_CAT_ID": 34875, "ELEMENT_SET_NO": 999, "REV_AT_EPOCH": 87756, "BSTAR": 0.00075093784, "MEAN_MOTION_DOT": 2.822e-05, "MEAN_MOTION_DDOT": 0}, "tle": {"line1": "1 34875U 93036ACN 25346.77270870  .00002822  00000+0  75094-3 0  9997", "line2": "2 34875  74.0435 158.1528 0016131 281.8592  93.2829 14.48925546877563"}}, "geometry": {"type": "Point", "coordinates": [53.807503460834894, -73.65410861279948]}}, {"type": "Feature", "properties": {"norad_id": 34878, "name": "COSMOS 2251 DEB", "group": "cosmos-2251-debris", "lat": 51.359952278421964, "lon": 66.96549045994227, "alt_km": 791.698820136342, "timestamp": "2025-12-13T15:35:12.499454+00:00", "meta": {"OBJECT_NAME": "COSMOS 2251 DEB", "OBJECT_ID": "1993-036ACR", "EPOCH": "2025-12-09T11:24:21.665664", "MEAN_MOTION": 13.44185831, "ECCENTRICITY": 0.04353122, "INCLINATION": 73.9652, "RA_OF_ASC_NODE": 52.502, "ARG_OF_PERICENTER": 36.6708, "MEAN_ANOMALY": 343.8238, "EPHEMERIS_TYPE": 0, "CLASSIFICATION_TYPE": "U", "NORAD_CAT_ID": 34878, "ELEMENT_SET_NO": 999, "REV_AT_EPOCH": 81229, "BSTAR": 0.00088072379, "MEAN_MOTION_DOT": 8.84e-06, "MEAN_MOTION_DDOT": 0}, "tle": {"line1": "1 34878U 93036ACR 25343.47525076  .00000884  00000+0  88072-3 0  9991", "line2": "2 34878  73.9652  52.5020 0435312  36.6708 343.8238 13.44185831812297"}}, "geometry": {"type": "Point", "coordinates": [66.96549045994227, 51.359952278421964]}}, {"type": "Feature", "properties": {"norad_id": 34882, "name": "COSMOS 2251 DEB", "group": "cosmos-2251-debris", "lat": -64.85398351560599, "lon": 81.39865754111452, "alt_km": 704.8564804148964, "timestamp": "2025-12-13T15:35:12.499463+00:00", "meta": {"OBJECT_NAME": "COSMOS 2251 DEB", "OBJECT_ID": "1993-036ACV", "EPOCH": "2025-12-12T15:26:33.087264", "MEAN_MOTION": 14.61597611, "ECCENTRICITY": 0.00828094, "INCLINATION": 74.0462, "RA_OF_ASC_NODE": 225.7751, "ARG_OF_PERICENTER": 352.7324, "MEAN_ANOMALY": 7.2634, "EPHEMERIS_TYPE": 0, "CLASSIFICATION_TYPE": "U", "NORAD_CAT_ID": 34882, "ELEMENT_SET_NO": 999, "REV_AT_EPOCH": 88523, "BSTAR": 0.00026902724, "MEAN_MOTION_DOT": 1.371e-05, "MEAN_MOTION_DDOT": 0}, "tle": {"line1": "1 34882U 93036ACV 25346.64343851  .00001371  00000+0  26903-3 0  9994", "line2": "2 34882  74.0462 225.7751 0082809 352.7324   7.2634 14.61597611885231"}}, "geometry": {"type": "Point", "coordinates": [81.39865754111452, -64.85398351560599]}}, {"type": "Feature", "properties": {"norad_id": 34883, "name": "COSMOS 2251 DEB", "group": "cosmos-2251-debris", "lat": -73.71274256668195, "lon": -43.236562357554014, "alt_km": 664.092661240451, "timestamp": "2025-12-13T15:35:12.499473+00:00", "meta": {"OBJECT_NAME": "COSMOS 2251 DEB", "OBJECT_ID": "1993-036ACW", "EPOCH": "2025-12-12T05:16:46.096608", "MEAN_MOTION": 14.51477124, "ECCENTRICITY": 0.00951451, "INCLINATION": 74.1989, "RA_OF_ASC_NODE": 63.6857, "ARG_OF_PERICENTER": 248.9733, "MEAN_ANOMALY": 110.1233, "EPHEMERIS_TYPE": 0, "CLASSIFICATION_TYPE": "U", "NORAD_CAT_ID": 34883, "ELEMENT_SET_NO": 999, "REV_AT_EPOCH": 86432, "BSTAR": 0.0063651984, "MEAN_MOTION_DOT": 0.00027049, "MEAN_MOTION_DDOT": 0}, "tle": {"line1": "1 34883U 93036ACW 25346.21997797  .00027049  00000+0  63652-2 0  9993", "line2": "2 34883  74.1989  63.6857 0095145 248.9733 110.1233 14.51477124864321"}}, "geometry": {"type": "Point", "coordinates": [-43.236562357554014, -73.71274256668195]}}, {"type": "Feature", "properties": {"norad_id": 34884, "name": "COSMOS 2251 DEB", "group": "cosmos-2251-debris", "lat": -32.880193562572586, "lon": 44.24280344826608, "alt_km": 603.9425588360109, "timestamp": "2025-12-13T15:35:12.499483+00:00", "meta": {"OBJECT_NAME": "COSMOS 2251 DEB", "OBJECT_ID": "1993-036ACX", "EPOCH": "2025-12-12T22:48:21.926592", "MEAN_MOTION": 14.90088707, "ECCENTRICITY": 0.0002359, "INCLINATION": 74.0175, "RA_OF_ASC_NODE": 56.3202, "ARG_OF_PERICENTER": 79.7538, "MEAN_ANOMALY": 96.7969, "EPHEMERIS_TYPE": 0, "CLASSIFICATION_TYPE": "U", "NORAD_CAT_ID": 34884, "ELEMENT_SET_NO": 999, "REV_AT_EPOCH": 87808, "BSTAR": 0.0036782706, "MEAN_MOTION_DOT": 0.00035709, "MEAN_MOTION_DDOT": 0}, "tle": {"line1": "1 34884U 93036ACX 25346.95025378  .00035709  00000+0  36783-2 0  9999", "line2": "2 34884  74.0175  56.3202 0002359  79.7538  96.7969 14.90088707878080"}}, "geometry": {"type": "Point", "coordinates": [44.24280344826608, -32.880193562572586]}}, {"type": "Feature", "properties": {"norad_id": 34885, "name": "COSMOS 2251 DEB", "group": "cosmos-2251-debris", "lat": 73.40249601212116, "lon": -104.80658483073346, "alt_km": 724.1131171544221, "timestamp": "2025-12-13T15:35:12.499493+00:00", "meta": {"OBJECT_NAME": "COSMOS 2251 DEB", "OBJECT_ID": "1993-036ACY", "EPOCH": "2025-12-12T23:20:51.000864", "MEAN_MOTION": 14.51504435, "ECCENTRICITY": 0.00151811, "INCLINATION": 74.0308, "RA_OF_ASC_NODE": 182.5834, "ARG_OF_PERICENTER": 268.0218, "MEAN_ANOMALY": 243.1569, "EPHEMERIS_TYPE": 0, "CLASSIFICATION_TYPE": "U", "NORAD_CAT_ID": 34885, "ELEMENT_SET_NO": 999, "REV_AT_EPOCH": 87482, "BSTAR": 0.0010028187, "MEAN_MOTION_DOT": 3.989e-05, "MEAN_MOTION_DDOT": 0}, "tle": {"line1": "1 34885U 93036ACY 25346.97281251  .00003989  00000+0  10028-2 0  9995", "line2": "2 34885  74.0308 182.5834 0015181 268.0218 243.1569 14.51504435874827"}}, "geometry": {"type": "Point", "coordinates": [-104.80658483073346, 73.40249601212116]}}, {"type": "Feature", "properties": {"norad_id": 34886, "name": "COSMOS 2251 DEB", "group": "cosmos-2251-debris", "lat": 73.19623307727353, "lon": -73.40403784599721, "alt_km": 443.21566917266773, "timestamp": "2025-12-13T15:35:12.499502+00:00", "meta": {"OBJECT_NAME": "COSMOS 2251 DEB", "OBJECT_ID": "1993-036ACZ", "EPOCH": "2025-12-12T22:00:46.238976", "MEAN_MOTION": 15.3868294, "ECCENTRICITY": 0.0030604, "INCLINATION": 73.9501, "RA_OF_ASC_NODE": 180.6071, "ARG_OF_PERICENTER": 3.9755, "MEAN_ANOMALY": 356.1689, "EPHEMERIS_TYPE": 0, "CLASSIFICATION_TYPE": "U", "NORAD_CAT_ID": 34886, "ELEMENT_SET_NO": 999, "REV_AT_EPOCH": 63001, "BSTAR": 0.002242925, "MEAN_MOTION_DOT": 0.00088092, "MEAN_MOTION_DDOT": 0}, "tle": {"line1": "1 34886U 93036ACZ 25346.91720184  .00088092  00000+0  22429-2 0  9999", "line2": "2 34886  73.9501 180.6071 0030604   3.9755 356.1689 15.38682940630015"}}, "geometry": {"type": "Point", "coordinates": [-73.40403784599721, 73.19623307727353]}}, {"type": "Feature", "properties": {"norad_id": 34907, "name": "COSMOS 2251 DEB", "group": "cosmos-2251-debris", "lat": 39.6768898774422, "lon": 60.22321751107667, "alt_km": 422.37418701069873, "timestamp": "2025-12-13T15:35:12.499512+00:00", "meta": {"OBJECT_NAME": "COSMOS 2251 DEB", "OBJECT_ID": "1993-036ADC", "EPOCH": "2025-12-12T14:31:54.148512", "MEAN_MOTION": 15.43892935, "ECCENTRICITY": 0.00204742, "INCLINATION": 73.9699, "RA_OF_ASC_NODE": 48.7037, "ARG_OF_PERICENTER": 341.6938, "MEAN_ANOMALY": 18.3532, "EPHEMERIS_TYPE": 0, "CLASSIFICATION_TYPE": "U", "NORAD_CAT_ID": 34907, "ELEMENT_SET_NO": 999, "REV_AT_EPOCH": 87971, "BSTAR": 0.0091335988, "MEAN_MOTION_DOT": 0.00442182, "MEAN_MOTION_DDOT": 0}, "tle": {"line1": "1 34907U 93036ADC 25346.60548783  .00442182  00000+0  91336-2 0  9999", "line2": "2 34907  73.9699  48.7037 0020474 341.6938  18.3532 15.43892935879711"}}, "geometry": {"type": "Point", "coordinates": [60.22321751107667, 39.6768898774422]}}, {"type": "Feature", "properties": {"norad_id": 34908, "name": "COSMOS 2251 DEB", "group": "cosmos-2251-debris", "lat": 70.65458650786675, "lon": 147.48957577947843, "alt_km": 746.9186463699416, "timestamp": "2025-12-13T15:35:12.499522+00:00", "meta": {"OBJECT_NAME": "COSMOS 2251 DEB", "OBJECT_ID": "1993-036ADD", "EPOCH": "2025-12-12T13:06:00.902592", "MEAN_MOTION": 14.37397664, "ECCENTRICITY": 0.00400396, "INCLINATION": 74.0593, "RA_OF_ASC_NODE": 24.0128, "ARG_OF_PERICENTER": 40.1694, "MEAN_ANOMALY": 112.0298, "EPHEMERIS_TYPE": 0, "CLASSIFICATION_TYPE": "U", "NORAD_CAT_ID": 34908, "ELEMENT_SET_NO": 999, "REV_AT_EPOCH": 87276, "BSTAR": 0.00078891814, "MEAN_MOTION_DOT": 2.354e-05, "MEAN_MOTION_DDOT": 0}, "tle": {"line1": "1 34908U 93036ADD 25346.54584378  .00002354  00000+0  78892-3 0  9999", "line2": "2 34908  74.0593  24.0128 0040039  40.1694 112.0298 14.37397664872764"}}, "geometry": {"type": "Point", "coordinates": [147.48957577947843, 70.65458650786675]}}]}